{
    "links": {
        "self": "http://www.neowsapp.com/rest/v1/neo/3879321?api_key=iIulBulltgU6a56xZRHN4H3l9WmuAYTsLGpBGhQ2"
    },
    "id": "3879321",
    "neo_reference_id": "3879321",
    "name": "(2019 UX3)",
    "designation": "2019 UX3",
    "nasa_jpl_url": "http://ssd.jpl.nasa.gov/sbdb.cgi?sstr=3879321",
    "absolute_magnitude_h": 26.8,
    "estimated_diameter": {
        "kilometers": {
            "estimated_diameter_min": 0.0116025908,
            "estimated_diameter_max": 0.0259441818
        },
        "meters": {
            "estimated_diameter_min": 11.6025908209,
            "estimated_diameter_max": 25.9441817907
        },
        "miles": {
            "estimated_diameter_min": 0.0072095135,
            "estimated_diameter_max": 0.0161209622
        },
        "feet": {
            "estimated_diameter_min": 38.066244069,
            "estimated_diameter_max": 85.1187093863
        }
    },
    "is_potentially_hazardous_asteroid": false,
    "close_approach_data": [
        {
            "close_approach_date": "2019-10-10",
            "close_approach_date_full": "2019-Oct-10 02:09",
            "epoch_date_close_approach": 1570673340000,
            "relative_velocity": {
                "kilometers_per_second": "7.8368165778",
                "kilometers_per_hour": "28212.5396800591",
                "miles_per_hour": "17530.1750028678"
            },
            "miss_distance": {
                "astronomical": "0.041463596",
                "lunar": "16.129338844",
                "kilometers": "6202865.64414052",
                "miles": "3854281.985838376"
            },
            "orbiting_body": "Earth"
        },
        {
            "close_approach_date": "2040-11-04",
            "close_approach_date_full": "2040-Nov-04 01:02",
            "epoch_date_close_approach": 2235603720000,
            "relative_velocity": {
                "kilometers_per_second": "16.6445311121",
                "kilometers_per_hour": "59920.3120037256",
                "miles_per_hour": "37232.1516447594"
            },
            "miss_distance": {
                "astronomical": "0.3196979254",
                "lunar": "124.3624929806",
                "kilometers": "47826128.683258898",
                "miles": "29717778.3320848724"
            },
            "orbiting_body": "Earth"
        }
    ],
    "orbital_data": {
        "orbit_id": "1",
        "orbit_determination_date": "2019-10-23 11:42:04",
        "first_observation_date": "2019-10-19",
        "last_observation_date": "2019-10-23",
        "data_arc_in_days": 4,
        "observations_used": 13,
        "orbit_uncertainty": "8",
        "minimum_orbit_intersection": ".0142602",
        "jupiter_tisserand_invariant": "4.004",
        "epoch_osculation": "2458777.5",
        "eccentricity": ".435317412675067",
        "semi_major_axis": "1.75983793611597",
        "inclination": ".8547806761897577",
        "ascending_node_longitude": "255.7050800409846",
        "orbital_period": "852.7219452669256",
        "perihelion_distance": ".9937498390385361",
        "perihelion_argument": "93.46301242625736",
        "aphelion_distance": "2.525926033193404",
        "perihelion_time": "2458744.923463200497",
        "mean_anomaly": "13.7530801369842",
        "mean_motion": ".4221774776622056",
        "equinox": "J2000",
        "orbit_class": {
            "orbit_class_type": "APO",
            "orbit_class_description": "Near-Earth asteroid orbits which cross the Earth’s orbit similar to that of 1862 Apollo",
            "orbit_class_range": "a (semi-major axis) > 1.0 AU; q (perihelion) < 1.017 AU"
        }
    },
    "is_sentry_object": false
}